{"records":[{"id": 3185697755, "lat": 11.058186, "lon": 106.6837316, "tag": {"bus_routes": "39, 51, 55, 66, 67, 68", "covered": "yes", "highway": "bus_stop", "local_ref": "Becamex-Tokyu Bus Route 51, 52", "name": "hikari", "network": "Kaze bus", "operator": "Becamex Tokyu Bus Company"}}, {"id": 3185708811, "lat": 11.0531284, "lon": 106.68998, "tag": {"bus_routes": "39", "highway": "bus_stop", "local_ref": "Becamex - Tokyu bus route 51, 52", "name": "Tr\u01b0\u1eddng Ng\u00f4 Th\u1eddi Nhi\u1ec7m"}}, {"id": 3185712932, "lat": 11.0569454, "lon": 106.6844385, "tag": {"bus_routes": "39, 51, 55, 66, 67", "covered": "yes", "highway": "bus_stop", "local_ref": "Becamex-Tokyu bus Route 51, 52", "name": "Kh\u00e1ch s\u1ea1n Becamex New City", "network": "Kaze bus", "operator": "Becamex Tokyu Bus Company"}}, {"id": 3185723720, "lat": 11.064997, "lon": 106.6868599, "tag": {"bus_routes": "39", "highway": "bus_stop", "local_ref": "Becamex-Tokyu Bus Route 51, 52", "name": "Ch\u00f9a H\u1ed9i An"}}, {"id": 4214878553, "lat": 10.9758088, "lon": 106.6704963, "tag": {"bus_routes": "39, 51, 55", "covered": "yes", "highway": "bus_stop", "name": "T\u00f2a nh\u00e0 Becamex", "network": "Kaze bus", "operator": "Becamex Tokyu Bus Company"}}, {"id": 4214878554, "lat": 10.970269, "lon": 106.670538, "tag": {"bus_routes": "39, 51", "covered": "yes", "highway": "bus_stop", "name": "S\u00e2n v\u1eadn \u0111\u1ed9ng G\u00f2 \u0110\u1eadu", "network": "Kaze bus", "operator": "Becamex Tokyu Bus Company"}}, {"id": 4214878555, "lat": 10.9663253, "lon": 106.6689298, "tag": {"bus_routes": "39, 51", "covered": "yes", "highway": "bus_stop", "name": "B\u1ebfn xe kh\u00e1ch t\u1ec9nh B\u00ecnh D\u01b0\u01a1ng", "network": "Kaze bus", "operator": "Becamex Tokyu Bus Company"}}, {"id": 4214878587, "lat": 11.0551582, "lon": 106.6870726, "tag": {"bus_routes": "39, 51, 66, 67", "covered": "no", "highway": "bus_stop", "name": "Ph\u1ed1 Th\u01b0\u01a1ng m\u1ea1i - L\u00fd Th\u00e1i T\u1ed5", "network": "Kaze bus", "operator": "Becamex Tokyu Bus Company"}}, {"id": 4214878588, "lat": 11.0553736, "lon": 106.6872, "tag": {"bus_routes": "39, 51, 66, 67", "covered": "no", "highway": "bus_stop", "name": "Ph\u1ed1 Th\u01b0\u01a1ng m\u1ea1i - L\u00fd Th\u00e1i T\u1ed5", "network": "Kaze bus", "operator": "Becamex Tokyu Bus Company"}}, {"id": 4214878589, "lat": 11.0571726, "lon": 106.6846084, "tag": {"bus_routes": "39,51, 55, 66, 67", "covered": "yes", "highway": "bus_stop", "name": "Kh\u00e1ch s\u1ea1n Becamex New City", "network": "Kaze bus", "operator": "Becamex Tokyu Bus Company"}}, {"id": 4214944313, "lat": 10.9636232, "lon": 106.6716315, "tag": {"bus_routes": "39", "highway": "bus_stop", "name": "Ng\u00e3 ba C\u00e2y Me", "network": "Kaze bus"}}, {"id": 4214944314, "lat": 10.9620774, "lon": 106.6751854, "tag": {"bus_routes": "39", "highway": "bus_stop", "name": "UBND ph\u01b0\u1eddng Ph\u00fa Th\u1ecd"}}, {"id": 4214944317, "lat": 10.9652186, "lon": 106.6826574, "tag": {"bus_routes": "39", "highway": "bus_stop", "name": "Ng\u00e3 t\u01b0 \u0110\u1ecba Ch\u1ea5t"}}, {"id": 4214944318, "lat": 10.9672203, "lon": 106.6830863, "tag": {"bus_routes": "39", "highway": "bus_stop", "name": "Ng\u00e3 t\u01b0 L\u00ea H\u1ed3ng Phong-\u0110\u1ea1i l\u1ed9 B\u00ecnh D\u01b0\u01a1ng"}}, {"id": 4214944319, "lat": 10.9704603, "lon": 106.6825286, "tag": {"bus_routes": "39", "highway": "bus_stop", "name": "Tr\u01b0\u1eddng C\u0110 Y t\u1ebf B\u00ecnh D\u01b0\u01a1ng"}}, {"id": 4214944320, "lat": 10.9743024, "lon": 106.6789333, "tag": {"bus_routes": "39", "highway": "bus_stop", "name": "Khu d\u00e2n c\u01b0 Ph\u00fa H\u00f2a"}}, {"id": 4214944321, "lat": 10.9740342, "lon": 106.6818473, "tag": {"bus_routes": "39", "highway": "bus_stop", "name": "Ng\u00e3 t\u01b0 L\u00ea H\u1ed3ng Phong - D1"}}, {"id": 4214944322, "lat": 10.9788409, "lon": 106.6809241, "tag": {"bus_routes": "39", "highway": "bus_stop", "name": "L\u00ea H\u1ed3ng Phong - Khu ph\u1ed1 8"}}, {"id": 4214944323, "lat": 10.9831749, "lon": 106.6800804, "tag": {"bus_routes": "39", "highway": "bus_stop", "name": "Tr\u01b0\u1eddng THCS Ph\u00fa H\u00f2a"}}, {"id": 4214944324, "lat": 10.9831227, "lon": 106.6769782, "tag": {"bus_routes": "39", "highway": "bus_stop", "name": "B\u1ea3o hi\u1ec3m x\u00e3 h\u1ed9i t\u1ec9nh B\u00ecnh D\u01b0\u01a1ng"}}, {"id": 4214944325, "lat": 10.9831923, "lon": 106.6743328, "tag": {"bus_routes": "39", "highway": "bus_stop", "name": "Ng\u00e3 ba Ph\u00fa L\u1ee3i - L\u00ea Th\u1ecb Trung"}}, {"id": 4214944326, "lat": 10.9857788, "lon": 106.6738433, "tag": {"bus_routes": "39", "highway": "bus_stop", "name": "C\u1ee5c th\u1ed1ng k\u00ea B\u00ecnh D\u01b0\u01a1ng"}}, {"id": 4214944328, "lat": 10.9904112, "lon": 106.673652, "tag": {"bus_routes": "39", "highway": "bus_stop", "name": "Ng\u00e3 ba Hu\u1ef3nh V\u0103n L\u0169y - L\u00ea H\u1ed3ng Phong"}}, {"id": 4214944329, "lat": 10.9989855, "lon": 106.6751183, "tag": {"bus_routes": "39", "highway": "bus_stop", "name": "Trung t\u00e2m VHTT ph\u01b0\u1eddng Ph\u00fa L\u1ee3i"}}, {"id": 4214944330, "lat": 11.0032322, "lon": 106.6757822, "tag": {"bus_routes": "39", "highway": "bus_stop", "name": "Ng\u00e3 t\u01b0 Hu\u1ef3nh V\u0103n L\u0169y - M\u1ef9 Ph\u01b0\u1edbc T\u00e2n V\u1ea1n"}}, {"id": 4214944331, "lat": 11.0111916, "lon": 106.6764781, "tag": {"bus_routes": "39", "highway": "bus_stop", "name": "UBND ph\u01b0\u1eddng Ph\u00fa M\u1ef9"}}, {"id": 4214944334, "lat": 11.0357851, "lon": 106.6824131, "tag": {"bus_routes": "39", "highway": "bus_stop", "name": "Ph\u00f2ng kh\u00e1m \u0110a khoa Khu v\u1ef1c Ph\u00fa M\u1ef9"}}, {"id": 4214944336, "lat": 11.0709744, "lon": 106.6854642, "tag": {"bus_routes": "39", "highway": "bus_stop", "name": "Unitown L\u00ea Ho\u00e0n"}}, {"id": 4214944337, "lat": 11.0732293, "lon": 106.6849785, "tag": {"bus_routes": "39", "highway": "bus_stop", "name": "C\u1ed5ng VSIP 2"}}, {"id": 4216979197, "lat": 11.0893927, "lon": 106.6811408, "tag": {"bus_routes": "39, 68", "covered": "no", "highway": "bus_stop", "name": "VISIP 2 Th\u1ed1ng Nh\u1ea5t - \u0110\u01b0\u1eddng s\u1ed1 6", "network": "Kaze bus"}}, {"id": 4216979198, "lat": 11.092152, "lon": 106.6804814, "tag": {"bus_routes": "39, 68", "covered": "no", "highway": "bus_stop", "name": "VISIP 2 Th\u1ed1ng Nh\u1ea5t - \u0110\u01b0\u1eddng s\u1ed1 7", "network": "Kaze bus"}}, {"id": 4216979199, "lat": 11.0855253, "lon": 106.6820412, "tag": {"bus_routes": "39", "covered": "no", "highway": "bus_stop", "name": "VISIP 2 Th\u1ed1ng Nh\u1ea5t - D\u00e2n Ch\u1ee7", "network": "Kaze bus"}}, {"id": 4216979200, "lat": 11.0776343, "lon": 106.6839461, "tag": {"bus_routes": "39", "highway": "bus_stop", "name": "VISIP 2 Th\u1ed1ng Nh\u1ea5t - \u0110\u01b0\u1eddng s\u1ed1 2", "network": "Kaze bus"}}, {"id": 4216979201, "lat": 11.0826317, "lon": 106.6828492, "tag": {"bus_routes": "39", "highway": "bus_stop", "name": "VISIP 2 Th\u1ed1ng Nh\u1ea5t - \u0110\u01b0\u1eddng s\u1ed1 4", "network": "Kaze bus"}}, {"id": 4216979206, "lat": 11.0617739, "lon": 106.6925683, "tag": {"bus_routes": "39", "highway": "bus_stop", "name": "Tr\u01b0\u1eddng Nguy\u1ec5n Khuy\u1ebfn", "network": "Kaze bus"}}, {"id": 4248076567, "lat": 10.9639229, "lon": 106.6796373, "tag": {"bus_routes": "39", "highway": "bus_stop", "name": "Tr\u1ea1m Cafe Lucky"}}]}